start=new Date('2021-09-24T00:00:00.000Z').valueOf();
sats=[{"RA_OF_ASC_NODE":"39.6554","MEAN_ANOMALY":"252.9052","EPHEMERIS_TYPE":"0","BSTAR":"0.00012545000000","APOAPSIS":"548.234","NORAD_CAT_ID":"47171","REF_FRAME":"TEME","DECAY_DATE":null,"ELEMENT_SET_NO":"999","COUNTRY_CODE":"US","PERIOD":"95.592","GP_ID":"185350493","OBJECT_ID":"2020-088BB","MEAN_MOTION_DDOT":"0.0000000000000","MEAN_MOTION_DOT":"0.00001587","RCS_SIZE":"LARGE","REV_AT_EPOCH":"4661","INCLINATION":"53.0567","OBJECT_TYPE":"PAYLOAD","MEAN_MOTION":"15.06398488","SEMIMAJOR_AXIS":"6925.353","LAUNCH_DATE":"2020-11-25","PERIAPSIS":"546.202","CENTER_NAME":"EARTH","FILE":"3125337","EPOCH":"2021-09-23T18:21:50.507424","CLASSIFICATION_TYPE":"U","TIME_SYSTEM":"UTC","MEAN_ELEMENT_THEORY":"SGP4","TLE_LINE1":"1 47171U 20088BB  21266.76516791  .00001587  00000-0  12545-3 0  9998","SITE":"AFETR","ECCENTRICITY":"0.00014670","TLE_LINE2":"2 47171  53.0567  39.6554 0001467 107.2098 252.9052 15.06398488 46619","OBJECT_NAME":"STARLINK-1888","ARG_OF_PERICENTER":"107.2098"},{"GP_ID":"185350749","OBJECT_ID":"2020-088BC","MEAN_MOTION_DDOT":"0.0000000000000","MEAN_MOTION_DOT":"0.00000956","RCS_SIZE":"LARGE","REV_AT_EPOCH":"4645","INCLINATION":"53.0583","OBJECT_TYPE":"PAYLOAD","RA_OF_ASC_NODE":"50.4343","MEAN_ANOMALY":"297.6399","EPHEMERIS_TYPE":"0","BSTAR":"0.00003139400000","APOAPSIS":"440.830","NORAD_CAT_ID":"47172","REF_FRAME":"TEME","ELEMENT_SET_NO":"999","DECAY_DATE":null,"COUNTRY_CODE":"US","PERIOD":"93.374","MEAN_ELEMENT_THEORY":"SGP4","TIME_SYSTEM":"UTC","TLE_LINE1":"1 47172U 20088BC  21266.66469130  .00000956  00000-0  31394-4 0  9995","SITE":"AFETR","ECCENTRICITY":"0.00017400","TLE_LINE2":"2 47172  53.0583  50.4343 0001740  62.4782 297.6399 15.42191726 46459","ARG_OF_PERICENTER":"62.4782","OBJECT_NAME":"STARLINK-1889","MEAN_MOTION":"15.42191726","SEMIMAJOR_AXIS":"6817.779","LAUNCH_DATE":"2020-11-25","PERIAPSIS":"438.458","CENTER_NAME":"EARTH","FILE":"3125337","EPOCH":"2021-09-23T15:57:09.328320","CLASSIFICATION_TYPE":"U"},{"INCLINATION":"53.0559","OBJECT_TYPE":"PAYLOAD","REV_AT_EPOCH":"4648","RCS_SIZE":"LARGE","MEAN_MOTION_DOT":"-0.00000314","GP_ID":"185349002","OBJECT_ID":"2020-088BD","MEAN_MOTION_DDOT":"0.0000000000000","PERIOD":"95.592","REF_FRAME":"TEME","NORAD_CAT_ID":"47173","COUNTRY_CODE":"US","ELEMENT_SET_NO":"999","DECAY_DATE":null,"BSTAR":"-0.00000219600000","EPHEMERIS_TYPE":"0","APOAPSIS":"548.384","RA_OF_ASC_NODE":"49.3841","MEAN_ANOMALY":"264.0011","TLE_LINE2":"2 47173  53.0559  49.3841 0001667  96.1168 264.0011 15.06394739 46484","OBJECT_NAME":"STARLINK-1890","ARG_OF_PERICENTER":"96.1168","SITE":"AFETR","ECCENTRICITY":"0.00016670","TLE_LINE1":"1 47173U 20088BD  21266.82596098 -.00000314  00000-0 -21960-5 0  9997","TIME_SYSTEM":"UTC","MEAN_ELEMENT_THEORY":"SGP4","FILE":"3125337","CLASSIFICATION_TYPE":"U","EPOCH":"2021-09-23T19:49:23.028672","LAUNCH_DATE":"2020-11-25","PERIAPSIS":"546.075","CENTER_NAME":"EARTH","MEAN_MOTION":"15.06394739","SEMIMAJOR_AXIS":"6925.365"},{"MEAN_MOTION":"15.06400608","SEMIMAJOR_AXIS":"6925.347","PERIAPSIS":"546.149","LAUNCH_DATE":"2020-11-25","CENTER_NAME":"EARTH","FILE":"3125337","EPOCH":"2021-09-23T18:25:49.172736","CLASSIFICATION_TYPE":"U","TIME_SYSTEM":"UTC","MEAN_ELEMENT_THEORY":"SGP4","TLE_LINE1":"1 47174U 20088BE  21266.76793024  .00001321  00000-0  10755-3 0  9994","SITE":"AFETR","ECCENTRICITY":"0.00015340","TLE_LINE2":"2 47174  53.0558  49.6481 0001534  95.5495 264.5669 15.06400608 46472","OBJECT_NAME":"STARLINK-1891","ARG_OF_PERICENTER":"95.5495","RA_OF_ASC_NODE":"49.6481","MEAN_ANOMALY":"264.5669","EPHEMERIS_TYPE":"0","BSTAR":"0.00010755000000","APOAPSIS":"548.274","NORAD_CAT_ID":"47174","REF_FRAME":"TEME","ELEMENT_SET_NO":"999","DECAY_DATE":null,"COUNTRY_CODE":"US","PERIOD":"95.592","GP_ID":"185349749","OBJECT_ID":"2020-088BE","MEAN_MOTION_DDOT":"0.0000000000000","MEAN_MOTION_DOT":"0.00001321","RCS_SIZE":"LARGE","REV_AT_EPOCH":"4647","INCLINATION":"53.0558","OBJECT_TYPE":"PAYLOAD"},{"MEAN_MOTION_DOT":"0.00002122","RCS_SIZE":"LARGE","GP_ID":"185349994","OBJECT_ID":"2020-088BF","MEAN_MOTION_DDOT":"0.0000000000000","INCLINATION":"53.0566","OBJECT_TYPE":"PAYLOAD","REV_AT_EPOCH":"4675","EPHEMERIS_TYPE":"0","BSTAR":"0.00016130000000","APOAPSIS":"548.095","RA_OF_ASC_NODE":"29.6376","MEAN_ANOMALY":"270.9031","PERIOD":"95.592","NORAD_CAT_ID":"47175","REF_FRAME":"TEME","DECAY_DATE":null,"ELEMENT_SET_NO":"999","COUNTRY_CODE":"US","TLE_LINE1":"1 47175U 20088BF  21266.76608600  .00002122  00000-0  16130-3 0  9993","TIME_SYSTEM":"UTC","MEAN_ELEMENT_THEORY":"SGP4","TLE_LINE2":"2 47175  53.0566  29.6376 0001295  89.2107 270.9031 15.06404864 46750","OBJECT_NAME":"STARLINK-1895","ARG_OF_PERICENTER":"89.2107","SITE":"AFETR","ECCENTRICITY":"0.00012950","PERIAPSIS":"546.302","LAUNCH_DATE":"2020-11-25","CENTER_NAME":"EARTH","MEAN_MOTION":"15.06404864","SEMIMAJOR_AXIS":"6925.334","FILE":"3125337","EPOCH":"2021-09-23T18:23:09.830400","CLASSIFICATION_TYPE":"U"},{"SEMIMAJOR_AXIS":"6925.334","MEAN_MOTION":"15.06404614","CENTER_NAME":"EARTH","LAUNCH_DATE":"2020-11-25","PERIAPSIS":"546.335","CLASSIFICATION_TYPE":"U","EPOCH":"2021-09-23T16:25:04.043712","FILE":"3125337","MEAN_ELEMENT_THEORY":"SGP4","TIME_SYSTEM":"UTC","TLE_LINE1":"1 47177U 20088BH  21266.68407458  .00000006  00000-0  19302-4 0  9998","ECCENTRICITY":"0.00012480","SITE":"AFETR","ARG_OF_PERICENTER":"113.2325","OBJECT_NAME":"STARLINK-1907","TLE_LINE2":"2 47177  53.0559  40.0289 0001248 113.2325 246.8795 15.06404614 46608","MEAN_ANOMALY":"246.8795","RA_OF_ASC_NODE":"40.0289","APOAPSIS":"548.064","BSTAR":"0.00001930200000","EPHEMERIS_TYPE":"0","COUNTRY_CODE":"US","DECAY_DATE":null,"ELEMENT_SET_NO":"999","REF_FRAME":"TEME","NORAD_CAT_ID":"47177","PERIOD":"95.592","OBJECT_ID":"2020-088BH","MEAN_MOTION_DDOT":"0.0000000000000","GP_ID":"185350250","RCS_SIZE":"LARGE","MEAN_MOTION_DOT":"0.00000006","REV_AT_EPOCH":"4660","OBJECT_TYPE":"PAYLOAD","INCLINATION":"53.0559"},{"EPOCH":"2021-09-23T15:57:12.087072","CLASSIFICATION_TYPE":"U","FILE":"3125337","CENTER_NAME":"EARTH","LAUNCH_DATE":"2020-11-25","PERIAPSIS":"546.240","SEMIMAJOR_AXIS":"6925.360","MEAN_MOTION":"15.06396144","OBJECT_NAME":"STARLINK-1912","ARG_OF_PERICENTER":"92.5457","TLE_LINE2":"2 47178  53.0559  50.0966 0001423  92.5457 267.5695 15.06396144 46452","ECCENTRICITY":"0.00014230","SITE":"AFETR","TLE_LINE1":"1 47178U 20088BJ  21266.66472323 -.00000543  00000-0 -17560-4 0  9992","MEAN_ELEMENT_THEORY":"SGP4","TIME_SYSTEM":"UTC","PERIOD":"95.592","ELEMENT_SET_NO":"999","DECAY_DATE":null,"COUNTRY_CODE":"US","NORAD_CAT_ID":"47178","REF_FRAME":"TEME","APOAPSIS":"548.211","EPHEMERIS_TYPE":"0","BSTAR":"-0.00001756000000","MEAN_ANOMALY":"267.5695","RA_OF_ASC_NODE":"50.0966","OBJECT_TYPE":"PAYLOAD","INCLINATION":"53.0559","REV_AT_EPOCH":"4645","MEAN_MOTION_DOT":"-0.00000543","RCS_SIZE":"LARGE","MEAN_MOTION_DDOT":"0.0000000000000","OBJECT_ID":"2020-088BJ","GP_ID":"185349502"},{"REV_AT_EPOCH":"4632","OBJECT_TYPE":"PAYLOAD","INCLINATION":"53.0548","MEAN_MOTION_DDOT":"0.0000000000000","OBJECT_ID":"2020-088BK","GP_ID":"185349250","MEAN_MOTION_DOT":"-0.00000064","RCS_SIZE":"LARGE","ELEMENT_SET_NO":"999","DECAY_DATE":null,"COUNTRY_CODE":"US","NORAD_CAT_ID":"47179","REF_FRAME":"TEME","PERIOD":"95.592","MEAN_ANOMALY":"267.0794","RA_OF_ASC_NODE":"59.8653","APOAPSIS":"548.271","EPHEMERIS_TYPE":"0","BSTAR":"0.00001458200000","ECCENTRICITY":"0.00015270","SITE":"AFETR","ARG_OF_PERICENTER":"93.0370","OBJECT_NAME":"STARLINK-1913","TLE_LINE2":"2 47179  53.0548  59.8653 0001527  93.0370 267.0794 15.06400172 46324","TIME_SYSTEM":"UTC","MEAN_ELEMENT_THEORY":"SGP4","TLE_LINE1":"1 47179U 20088BK  21266.71910273 -.00000064  00000-0  14582-4 0  9998","EPOCH":"2021-09-23T17:15:30.475872","CLASSIFICATION_TYPE":"U","FILE":"3125337","SEMIMAJOR_AXIS":"6925.348","MEAN_MOTION":"15.06400172","CENTER_NAME":"EARTH","LAUNCH_DATE":"2020-11-25","PERIAPSIS":"546.156"},{"COUNTRY_CODE":"US","DECAY_DATE":null,"ELEMENT_SET_NO":"999","REF_FRAME":"TEME","NORAD_CAT_ID":"47180","PERIOD":"92.066","MEAN_ANOMALY":"326.6833","RA_OF_ASC_NODE":"46.6564","APOAPSIS":"377.286","BSTAR":"0.00580030000000","EPHEMERIS_TYPE":"0","REV_AT_EPOCH":"4652","OBJECT_TYPE":"PAYLOAD","INCLINATION":"53.0533","OBJECT_ID":"2020-088BL","MEAN_MOTION_DDOT":"0.0000000000000","GP_ID":"185350494","RCS_SIZE":"LARGE","MEAN_MOTION_DOT":"0.00602506","CLASSIFICATION_TYPE":"U","EPOCH":"2021-09-23T20:44:42.053568","FILE":"3125337","SEMIMAJOR_AXIS":"6754.002","MEAN_MOTION":"15.64087376","CENTER_NAME":"EARTH","LAUNCH_DATE":"2020-11-25","PERIAPSIS":"374.447","ECCENTRICITY":"0.00021020","SITE":"AFETR","ARG_OF_PERICENTER":"33.4313","OBJECT_NAME":"STARLINK-1914","TLE_LINE2":"2 47180  53.0533  46.6564 0002102  33.4313 326.6833 15.64087376 46529","TIME_SYSTEM":"UTC","MEAN_ELEMENT_THEORY":"SGP4","TLE_LINE1":"1 47180U 20088BL  21266.86437562  .00602506  00000-0  58003-2 0  9993"},{"EPOCH":"2021-09-23T15:01:27.358176","CLASSIFICATION_TYPE":"U","FILE":"3125337","CENTER_NAME":"EARTH","LAUNCH_DATE":"2020-11-25","PERIAPSIS":"546.089","SEMIMAJOR_AXIS":"6925.323","MEAN_MOTION":"15.06408445","OBJECT_NAME":"STARLINK-1927","ARG_OF_PERICENTER":"109.7080","TLE_LINE2":"2 47181  53.0569  30.2740 0001586 109.7080 250.4080 15.06408445 46738","ECCENTRICITY":"0.00015860","SITE":"AFETR","TLE_LINE1":"1 47181U 20088BM  21266.62601109  .00001813  00000-0  14052-3 0  9999","MEAN_ELEMENT_THEORY":"SGP4","TIME_SYSTEM":"UTC","PERIOD":"95.592","ELEMENT_SET_NO":"999","DECAY_DATE":null,"COUNTRY_CODE":"US","NORAD_CAT_ID":"47181","REF_FRAME":"TEME","APOAPSIS":"548.286","EPHEMERIS_TYPE":"0","BSTAR":"0.00014052000000","MEAN_ANOMALY":"250.4080","RA_OF_ASC_NODE":"30.2740","OBJECT_TYPE":"PAYLOAD","INCLINATION":"53.0569","REV_AT_EPOCH":"4673","MEAN_MOTION_DOT":"0.00001813","RCS_SIZE":"LARGE","OBJECT_ID":"2020-088BM","MEAN_MOTION_DDOT":"0.0000000000000","GP_ID":"185350750"}];
